[
{
"name":"Best in Show Mobile Vending",
"city":"Walnut Creek",
"stateCode":"CA",
"postalCode":"94597",
"phone":"(925) 330-3429"
}
,
{
"name":"Bonehead's Texas BBQ Catering",
"city":"Walnut Creek",
"stateCode":"CA",
"postalCode":"94596",
"phone":"(866) 722-1828"
}
,
{
"name":"Morucci's Si Mangia Bene",
"address":"1218 Boulevard Way",
"city":"Walnut Creek",
"stateCode":"CA",
"postalCode":"94595",
"phone":"(925) 939-2426"
}
,
{
"name":"Brass Bear Delicatessen",
"address":"1506 N Main St",
"city":"Walnut Creek",
"stateCode":"CA",
"postalCode":"94596",
"phone":"(925) 954-7485"
}
,
{
"name":"Plaza Deli",
"address":"2175 N California Blvd",
"city":"Walnut Creek",
"stateCode":"CA",
"postalCode":"94596",
"phone":"(925) 932-2435"
}
,
{
"name":"Kabob House",
"address":"1250-G Newell Ave",
"city":"Walnut Creek",
"stateCode":"CA",
"postalCode":"94596",
"phone":"(925) 935-9278"
}
,
{
"name":"Babushka Russian Deli & Cafe",
"address":"1475 Newell Ave",
"city":"Walnut Creek",
"stateCode":"CA",
"postalCode":"94596",
"phone":"(925) 210-0779"
}
,
{
"name":"Ottavio",
"address":"1606 N Main St",
"city":"Walnut Creek",
"stateCode":"CA",
"postalCode":"94596",
"phone":"(925) 930-8008"
}
,
{
"name":"Larkey Mini Market & Deli",
"address":"2800 Larkey Ln",
"city":"Walnut Creek",
"stateCode":"CA",
"postalCode":"94597",
"phone":"(925) 932-7970"
}
,
{
"name":"Chopin Cafe & Restaurant",
"address":"1574 Palos Verdes Mall",
"city":"Walnut Creek",
"stateCode":"CA",
"postalCode":"94597",
"phone":"(925) 256-8658"
}
,
{
"name":"Nordstrom Cafe PM",
"address":"1200 Broadway Plz",
"city":"Walnut Creek",
"stateCode":"CA",
"postalCode":"94596",
"phone":"(925) 930-7959"
}
,
{
"name":"Chicks and Love",
"address":"1755 Locust St",
"city":"Walnut Creek",
"stateCode":"CA",
"postalCode":"94596",
"phone":"(925) 933-9417"
}
,
{
"name":"Lettuce",
"address":"1632 Locust St",
"city":"Walnut Creek",
"stateCode":"CA",
"postalCode":"94596",
"phone":"(925) 933-5600"
}
,
{
"name":"Tender Greens",
"address":"1352 Locust St",
"city":"Walnut Creek",
"stateCode":"CA",
"postalCode":"94596",
"phone":"(925) 937-5100"
}
,
{
"name":"Cheese Steak Shop",
"address":"1626 Cypress St",
"city":"Walnut Creek",
"stateCode":"CA",
"postalCode":"94596",
"phone":"(925) 934-7017"
}
,
{
"name":"Babalou's Mediterranean",
"address":"1645 Bonanza St",
"city":"Walnut Creek",
"stateCode":"CA",
"postalCode":"94596",
"phone":"(925) 930-8000"
}
,
{
"name":"Salvatore Italian Restaurant",
"address":"1627 N Broadway",
"city":"Walnut Creek",
"stateCode":"CA",
"postalCode":"94596",
"phone":"(925) 932-2828"
}
,
{
"name":"The Greenery Restaurant",
"address":"1551 Marchbanks Dr",
"city":"Walnut Creek",
"stateCode":"CA",
"postalCode":"94598",
"phone":"(925) 937-1270"
}
,
{
"name":"Chef Jon Lee Asian Confusion Cuisine",
"address":"1250 Newell Ave",
"city":"Walnut Creek",
"stateCode":"CA",
"postalCode":"94596",
"phone":"(925) 935-9335"
}
,
{
"name":"Va de Vi Bistro & Wine Bar",
"address":"1511 Mt Diablo Blvd",
"city":"Walnut Creek",
"stateCode":"CA",
"postalCode":"94596",
"phone":"(925) 979-0100"
}
,
{
"name":"Bosphorus",
"address":"1512 Locust St",
"city":"Walnut Creek",
"stateCode":"CA",
"postalCode":"94596",
"phone":"(925) 944-5484"
}
,
{
"name":"Kacha Thai Bistro",
"address":"1665 Mt Diablo Blvd",
"city":"Walnut Creek",
"stateCode":"CA",
"postalCode":"94596",
"phone":"(925) 988-9877"
}
,
{
"name":"Ruth's Chris Steak House",
"address":"1553 Olympic Blvd",
"city":"Walnut Creek",
"stateCode":"CA",
"postalCode":"94596",
"phone":"(925) 977-3477"
}
,
{
"name":"Walnut Creek Yacht Club",
"address":"1555 Bonanza St",
"city":"Walnut Creek",
"stateCode":"CA",
"postalCode":"94596",
"phone":"(925) 944-3474"
}
,
{
"name":"Montecatini Ristorante",
"address":"1528 Civic Dr",
"city":"Walnut Creek",
"stateCode":"CA",
"postalCode":"94596",
"phone":"(925) 943-6608"
}
,
{
"name":"A Sweet Affair",
"address":"1815 Ygnacio Valley Rd",
"city":"Walnut Creek",
"stateCode":"CA",
"postalCode":"94598",
"phone":"(925) 944-1910"
}
,
{
"name":"Nama Sushi & Teriyaki",
"address":"1502 Sunnyvale Ave",
"city":"Walnut Creek",
"stateCode":"CA",
"postalCode":"94597",
"phone":"(925) 932-9540"
}
,
{
"name":"Pinky's Pizza",
"address":"2085 N Broadway",
"city":"Walnut Creek",
"stateCode":"CA",
"postalCode":"94596",
"phone":"(925) 939-5000"
}
,
{
"name":"Yan's China Bistro & Bar",
"address":"2929 N Main St",
"city":"Walnut Creek",
"stateCode":"CA",
"postalCode":"94597",
"phone":"(925) 944-5968"
}
,
{
"name":"Genova Delicatessen & Ravioli Factory",
"address":"1105 S California Blvd",
"city":"Walnut Creek",
"stateCode":"CA",
"postalCode":"94596",
"phone":"(925) 939-3838"
}
,
{
"name":"Vanessa's Bistro 2",
"address":"1329 N Main St",
"city":"Walnut Creek",
"stateCode":"CA",
"postalCode":"94596",
"phone":"(925) 891-4790"
}
,
{
"name":"Harvest Market",
"address":"1633 Bonanza St",
"city":"Walnut Creek",
"stateCode":"CA",
"postalCode":"94596",
"phone":"(925) 229-1633"
}
,
{
"name":"Chipotle Mexican Grill",
"address":"1158 Locust St",
"city":"Walnut Creek",
"stateCode":"CA",
"postalCode":"94596",
"phone":"(925) 935-9307"
}
,
{
"name":"Cafe Montego",
"address":"1350 Montego",
"city":"Walnut Creek",
"stateCode":"CA",
"postalCode":"94598"
}
,
{
"name":"Silk Road",
"address":"1440 N Main St",
"city":"Walnut Creek",
"stateCode":"CA",
"postalCode":"94596",
"phone":"(925) 932-9090"
}
,
{
"name":"Prima Ristorante & Wine Merchants",
"address":"1522 N Main St",
"city":"Walnut Creek",
"stateCode":"CA",
"postalCode":"94596",
"phone":"(925) 935-7780"
}
,
{
"name":"Saroor Indian Cuisine",
"address":"2580 N Main St",
"city":"Walnut Creek",
"stateCode":"CA",
"postalCode":"94597",
"phone":"(925) 937-2031"
}
,
{
"name":"Ajisai Japanese Grill & Sushi",
"address":"2300 N Main St",
"city":"Walnut Creek",
"stateCode":"CA",
"postalCode":"94596",
"phone":"(925) 932-8398"
}
,
{
"name":"Cypress",
"address":"1388 Locust St",
"city":"Walnut Creek",
"stateCode":"CA",
"postalCode":"94596",
"phone":"(925) 891-4197"
}
,
{
"name":"George's Giant Hamburger",
"address":"1491 Newell Ave",
"city":"Walnut Creek",
"stateCode":"CA",
"postalCode":"94596",
"phone":"(925) 939-4888"
}
,
{
"name":"Sasa Restaurant",
"address":"1432 N Main St",
"city":"Walnut Creek",
"stateCode":"CA",
"postalCode":"94596",
"phone":"(925) 210-0188"
}
,
{
"name":"Crepes Ooh La La",
"address":"1548 Locust St",
"city":"Walnut Creek",
"stateCode":"CA",
"postalCode":"94596",
"phone":"(925) 944-5790"
}
,
{
"name":"Do Sit Thai Cuisine",
"address":"1520 Palos Verde Mall",
"city":"Walnut Creek",
"stateCode":"CA",
"postalCode":"94597",
"phone":"(925) 933-3889"
}
,
{
"name":"The Door Restaurant",
"address":"1448 S Main St",
"city":"Walnut Creek",
"stateCode":"CA",
"postalCode":"94596",
"phone":"(925) 930-8088"
}
,
{
"name":"Hubcaps",
"address":"1548 Bonanza St",
"city":"Walnut Creek",
"stateCode":"CA",
"postalCode":"94596",
"phone":"(925) 945-6960"
}
,
{
"name":"Bombay Indian Restaurant",
"address":"1512 N Main St",
"city":"Walnut Creek",
"stateCode":"CA",
"postalCode":"94596",
"phone":"(925) 932-5777"
}
,
{
"name":"Fleming's Prime Steakhouse & Wine Bar",
"address":"1685 Mt. Diablo Blvd",
"city":"Walnut Creek",
"stateCode":"CA",
"postalCode":"94596",
"phone":"(925) 287-0297"
}
,
{
"name":"Le Cheval",
"address":"1375 N Broadway",
"city":"Walnut Creek",
"stateCode":"CA",
"postalCode":"94596",
"phone":"(925) 938-2288"
}
,
{
"name":"Il Pavone Cucina Italiana",
"address":"2291 Olympic Blvd",
"city":"Walnut Creek",
"stateCode":"CA",
"postalCode":"94595",
"phone":"(925) 939-9060"
}
,
{
"name":"Kinder's Custom Meats",
"address":"1831 Ygnacio Valley Rd",
"city":"Walnut Creek",
"stateCode":"CA",
"postalCode":"94598",
"phone":"(925) 952-9393"
}
,
{
"name":"Tullio's Italian Restaurant",
"address":"2065 N Broadway",
"city":"Walnut Creek",
"stateCode":"CA",
"postalCode":"94596",
"phone":"(925) 938-3367"
}
,
{
"name":"Élevé",
"address":"1677 N Main St",
"city":"Walnut Creek",
"stateCode":"CA",
"postalCode":"94596",
"phone":"(925) 979-1677"
}
,
{
"name":"Spoontonic Lounge",
"address":"2580 N Main St",
"city":"Walnut Creek",
"stateCode":"CA",
"postalCode":"94597",
"phone":"(925) 977-1888"
}
,
{
"name":"Genova Delicatessen & Ravioli Factory",
"address":"2064 Treat Blvd",
"city":"Walnut Creek",
"stateCode":"CA",
"postalCode":"94598",
"phone":"(925) 938-2888"
}
,
{
"name":"Massimo Ristorante",
"address":"1604 Locust St",
"city":"Walnut Creek",
"stateCode":"CA",
"postalCode":"94596",
"phone":"(925) 932-1474"
}
,
{
"name":"Cruchon's",
"address":"2599 N Main St",
"city":"Walnut Creek",
"stateCode":"CA",
"postalCode":"94597",
"phone":"(925) 937-0682"
}
,
{
"name":"Havana",
"address":"1516 Bonanza St",
"city":"Walnut Creek",
"stateCode":"CA",
"postalCode":"94596",
"phone":"(925) 939-4555"
}
,
{
"name":"Rocco's Ristorante Pizzeria",
"address":"2909 Ygnacio Valley Rd",
"city":"Walnut Creek",
"stateCode":"CA",
"postalCode":"94598",
"phone":"(925) 947-6105"
}
,
{
"name":"Pho Huynh Hiep 6 - Kevin's Noodle House",
"address":"2034 N Main St",
"city":"Walnut Creek",
"stateCode":"CA",
"postalCode":"94596",
"phone":"(925) 933-4746"
}
,
{
"name":"The Habit Burger Grill",
"address":"1255 S California Blvd",
"city":"Walnut Creek",
"stateCode":"CA",
"postalCode":"94596",
"phone":"(925) 279-2286"
}
,
{
"name":"Tomatina",
"address":"1325 N Main St",
"city":"Walnut Creek",
"stateCode":"CA",
"postalCode":"94596",
"phone":"(925) 930-9999"
}
,
{
"name":"Buckhorn Grill",
"address":"1171 Locust St",
"city":"Walnut Creek",
"stateCode":"CA",
"postalCode":"94596",
"phone":"(925) 945-7676"
}
,
{
"name":"Sunrise Bistro & Catering",
"address":"1559 Botelho Dr",
"city":"Walnut Creek",
"stateCode":"CA",
"postalCode":"94596",
"phone":"(925) 930-0122"
}
,
{
"name":"Scott's Seafood Grill & Bar",
"address":"1333 N California Blvd",
"city":"Walnut Creek",
"stateCode":"CA",
"postalCode":"94596",
"phone":"(925) 934-1300"
}
,
{
"name":"Evie's Hamburgers",
"address":"2861 Ygnacio Valley Rd",
"city":"Walnut Creek",
"stateCode":"CA",
"postalCode":"94598",
"phone":"(925) 934-4737"
}
,
{
"name":"Koreana Kitchen",
"address":"1546 Bonanza St",
"city":"Walnut Creek",
"stateCode":"CA",
"postalCode":"94596",
"phone":"(925) 938-5959"
}
,
{
"name":"Stanfords Walnut Creek",
"address":"1300 South Main",
"city":"Walnut Creek",
"stateCode":"CA",
"postalCode":"94596",
"phone":"(925) 944-0895"
}
,
{
"name":"Skipolini's Pizza",
"address":"1535 Giammona Dr",
"city":"Walnut Creek",
"stateCode":"CA",
"postalCode":"94596",
"phone":"(925) 280-1100"
}
,
{
"name":"High Tech Burrito",
"address":"1815 Ygnacio Valley Rd",
"city":"Walnut Creek",
"stateCode":"CA",
"postalCode":"94598",
"phone":"(925) 938-3888"
}
,
{
"name":"Locust Street Deli-Cafe",
"address":"1552 Locust St",
"city":"Walnut Creek",
"stateCode":"CA",
"postalCode":"94596",
"phone":"(925) 945-6669"
}
,
{
"name":"C U Sushi",
"address":"1690 Locust St",
"city":"Walnut Creek",
"stateCode":"CA",
"postalCode":"94596",
"phone":"(925) 274-1767"
}
,
{
"name":"Toyo Sushi",
"address":"2865 Ygnacio Valley Rd",
"city":"Walnut Creek",
"stateCode":"CA",
"postalCode":"94598",
"phone":"(925) 947-4886"
}
,
{
"name":"Pho Saigon",
"address":"1560 Newell Ave",
"city":"Walnut Creek",
"stateCode":"CA",
"postalCode":"94596",
"phone":"(925) 296-0777"
}
,
{
"name":"Pizza Oliva",
"address":"2400 Olympic Blvd",
"city":"Walnut Creek",
"stateCode":"CA",
"postalCode":"94595",
"phone":"(925) 274-9990"
}
,
{
"name":"Pomegranate",
"address":"1389 N Main St",
"city":"Walnut Creek",
"stateCode":"CA",
"postalCode":"94596",
"phone":"(925) 944-9292"
}
,
{
"name":"Sorrento Italian Restaurant & Pizza",
"address":"2064 Treat Blvd",
"city":"Walnut Creek",
"stateCode":"CA",
"postalCode":"94598",
"phone":"(925) 938-3366"
}
,
{
"name":"Caffe Panini",
"address":"1333 N California Blvd",
"city":"Walnut Creek",
"stateCode":"CA",
"postalCode":"94596",
"phone":"(925) 933-2792"
}
,
{
"name":"Kaiwa Sushi",
"address":"1534 Locust St",
"city":"Walnut Creek",
"stateCode":"CA",
"postalCode":"94596",
"phone":"(925) 274-9496"
}
,
{
"name":"Domino's Pizza",
"address":"2521 N Main St",
"city":"Walnut Creek",
"stateCode":"CA",
"postalCode":"94597",
"phone":"(925) 944-5400"
}
,
{
"name":"Oi-C Bowl",
"address":"1616 N Main St",
"city":"Walnut Creek",
"stateCode":"CA",
"postalCode":"94596",
"phone":"(925) 287-8118"
}
,
{
"name":"Lark Creek Walnut Creek",
"address":"1360 Locust St",
"city":"Walnut Creek",
"stateCode":"CA",
"postalCode":"94596",
"phone":"(925) 256-1234"
}
,
{
"name":"Erawan",
"address":"1414 N Main St",
"city":"Walnut Creek",
"stateCode":"CA",
"postalCode":"94596",
"phone":"(925) 937-7887"
}
,
{
"name":"Round Table Pizza",
"address":"1776 N Broadway",
"city":"Walnut Creek",
"stateCode":"CA",
"postalCode":"94596",
"phone":"(925) 945-7878"
}
,
{
"name":"Boudin Sourdough Bakery & Cafe",
"address":"67 Broadway Ln",
"city":"Walnut Creek",
"stateCode":"CA",
"postalCode":"94596",
"phone":"(925) 935-4375"
}
,
{
"name":"Green Garden Chinese Cuisine",
"address":"1562 Palos Verdes Mall",
"city":"Walnut Creek",
"stateCode":"CA",
"postalCode":"94597",
"phone":"(925) 930-7696"
}
,
{
"name":"Fuddruckers",
"address":"1940 N Main St",
"city":"Walnut Creek",
"stateCode":"CA",
"postalCode":"94596",
"phone":"(925) 943-1450"
}
,
{
"name":"Heavenly Cafe",
"address":"3116 Oak Rd",
"city":"Walnut Creek",
"stateCode":"CA",
"postalCode":"94597",
"phone":"(925) 939-8218"
}
,
{
"name":"Jalisco Gourmet Burritos",
"address":"2228 Oak Grove Rd",
"city":"Walnut Creek",
"stateCode":"CA",
"postalCode":"94598",
"phone":"(925) 934-9922"
}
,
{
"name":"Original Mel's",
"address":"1394 N Main St",
"city":"Walnut Creek",
"stateCode":"CA",
"postalCode":"94596",
"phone":"(925) 935-6457"
}
,
{
"name":"Shanghai Restaurant",
"address":"1291 Parkside Dr",
"city":"Walnut Creek",
"stateCode":"CA",
"postalCode":"94596",
"phone":"(925) 256-6869"
}
,
{
"name":"La Boulange de Walnut Creek",
"address":"1348 Broadway Plz",
"city":"Walnut Creek",
"stateCode":"CA",
"postalCode":"94596",
"phone":"(925) 274-1655"
}
,
{
"name":"Cactus Cafe",
"address":"1277 Treat Blvd",
"city":"Walnut Creek",
"stateCode":"CA",
"postalCode":"94597",
"phone":"(925) 934-9200"
}
,
{
"name":"Alborz Restaurant",
"address":"1829 Mt Diablo Blvd",
"city":"Walnut Creek",
"stateCode":"CA",
"postalCode":"94596",
"phone":"(925) 944-9009"
}
,
{
"name":"Vic Stewart's",
"address":"850 S Broadway",
"city":"Walnut Creek",
"stateCode":"CA",
"postalCode":"94596",
"phone":"(925) 943-5666"
}
,
{
"name":"Black Bear Diner",
"address":"700 Bancroft Rd",
"city":"Walnut Creek",
"stateCode":"CA",
"postalCode":"94598",
"phone":"(925) 941-0000"
}
,
{
"name":"Buttercup Grill & Bar",
"address":"660 Ygnacio Valley Rd",
"city":"Walnut Creek",
"stateCode":"CA",
"postalCode":"94596",
"phone":"(925) 932-2763"
}
,
{
"name":"The Village Cupboard Delicatessen",
"address":"1842 Tice Valley Blvd",
"city":"Walnut Creek",
"stateCode":"CA",
"postalCode":"94595",
"phone":"(925) 934-0541"
}
,
{
"name":"Tatsu Sushi",
"address":"1837 Ygnacio Valley Rd",
"city":"Walnut Creek",
"stateCode":"CA",
"postalCode":"94598",
"phone":"(925) 287-9273"
}
,
{
"name":"California Pizza Kitchen",
"address":"1120 Broadway Plz",
"city":"Walnut Creek",
"stateCode":"CA",
"postalCode":"94596",
"phone":"(925) 938-0720"
}
,
{
"name":"The Original Hickory Pit",
"address":"1495 S Main St",
"city":"Walnut Creek",
"stateCode":"CA",
"postalCode":"94596",
"phone":"(925) 935-7450"
}
,
{
"name":"Shiro Sushi Grooves",
"address":"15 Giammona Dr",
"city":"Walnut Creek",
"stateCode":"CA",
"postalCode":"94596",
"phone":"(925) 945-1400"
}
,
{
"name":"Wendy's",
"address":"2955 N Main St",
"city":"Walnut Creek",
"stateCode":"CA",
"postalCode":"94597",
"phone":"(925) 937-7269"
}
,
{
"name":"Plearn Thai Palace",
"address":"1510 N Main St",
"city":"Walnut Creek",
"stateCode":"CA",
"postalCode":"94596",
"phone":"(925) 937-7999"
}
,
{
"name":"The Stadium Pub",
"address":"1420 Lincoln Ave",
"city":"Walnut Creek",
"stateCode":"CA",
"postalCode":"94596",
"phone":"(925) 256-7302"
}
,
{
"name":"Breads of India",
"address":"1358 N Main St",
"city":"Walnut Creek",
"stateCode":"CA",
"postalCode":"94596",
"phone":"(925) 256-7684"
}
,
{
"name":"C-Blue",
"address":"2805 Jones Rd",
"city":"Walnut Creek",
"stateCode":"CA",
"postalCode":"94597",
"phone":"(925) 938-8700"
}
,
{
"name":"The Counter",
"address":"1699 N California Blvd",
"city":"Walnut Creek",
"stateCode":"CA",
"postalCode":"94596",
"phone":"(925) 935-3795"
}
,
{
"name":"Cinco De Mayo",
"address":"1372 Locust St",
"city":"Walnut Creek",
"stateCode":"CA",
"postalCode":"94596",
"phone":"(925) 954-1050"
}
,
{
"name":"Nalida Thai Kitchen",
"address":"1250 Newell Ave",
"city":"Walnut Creek",
"stateCode":"CA",
"postalCode":"94596",
"phone":"(925) 935-9335"
}
,
{
"name":"Caffe California",
"address":"100 Pringle Ave",
"city":"Walnut Creek",
"stateCode":"CA",
"postalCode":"94596",
"phone":"(925) 932-1675"
}
,
{
"name":"Mi Casa Restaurant",
"address":"2195 N Broadway",
"city":"Walnut Creek",
"stateCode":"CA",
"postalCode":"94596",
"phone":"(925) 937-8800"
}
,
{
"name":"The Pizza Place",
"address":"1521 Main Sreet",
"city":"Walnut Creek",
"stateCode":"CA",
"postalCode":"94596",
"phone":"(925) 935-0100"
}
,
{
"name":"Rossmoor Diner",
"address":"1908 Tice Valley Blvd Ste A",
"city":"Walnut Creek",
"stateCode":"CA",
"postalCode":"94595",
"phone":"(925) 933-4768"
}
,
{
"name":"The Civic Garden Deli",
"address":"201 N Civic Dr",
"city":"Walnut Creek",
"stateCode":"CA",
"postalCode":"94596",
"phone":"(925) 934-5105"
}
,
{
"name":"Miraku",
"address":"2131 N Broadway",
"city":"Walnut Creek",
"stateCode":"CA",
"postalCode":"94596",
"phone":"(925) 932-1112"
}
,
{
"name":"Pizza Guys",
"address":"1548 Newell Ave",
"city":"Walnut Creek",
"stateCode":"CA",
"postalCode":"94596",
"phone":"(925) 934-5555"
}
,
{
"name":"Taheri's Mediterranean Restaurant & Catering",
"address":"2999 Oak Rd",
"city":"Walnut Creek",
"stateCode":"CA",
"postalCode":"94597",
"phone":"(925) 933-1000"
}
,
{
"name":"Mary's Pizza Shack",
"address":"2246 Oak Grove Rd",
"city":"Walnut Creek",
"stateCode":"CA",
"postalCode":"94598",
"phone":"(925) 938-4800"
}
,
{
"name":"Jack In The Box",
"address":"2295 N Main St",
"city":"Walnut Creek",
"stateCode":"CA",
"postalCode":"94596",
"phone":"(925) 944-5690"
}
,
{
"name":"Sargam Indian Cuisine",
"address":"140 N Civic Dr",
"city":"Walnut Creek",
"stateCode":"CA",
"postalCode":"94596",
"phone":"(925) 937-2700"
}
,
{
"name":"Subway",
"address":"1441 Locust St",
"city":"Walnut Creek",
"stateCode":"CA",
"postalCode":"94596",
"phone":"(925) 938-3500"
}
,
{
"name":"Katy's Kreek",
"address":"1680 Locust St",
"city":"Walnut Creek",
"stateCode":"CA",
"postalCode":"94596",
"phone":"(925) 946-0949"
}
,
{
"name":"Sakana Sushi",
"address":"1280 Newell Ave",
"city":"Walnut Creek",
"stateCode":"CA",
"postalCode":"94596",
"phone":"(925) 938-6050"
}
,
{
"name":"Pyramid Alehouse",
"address":"1410 Locust St",
"city":"Walnut Creek",
"stateCode":"CA",
"postalCode":"94596",
"phone":"(925) 946-1520"
}
,
{
"name":"House of Sake",
"address":"313 N Civic Dr",
"city":"Walnut Creek",
"stateCode":"CA",
"postalCode":"94596",
"phone":"(925) 930-8811"
}
,
{
"name":"China Village Restaurant",
"address":"1841 Ygnacio Valley Rd",
"city":"Walnut Creek",
"stateCode":"CA",
"postalCode":"94598",
"phone":"(925) 944-1006"
}
,
{
"name":"Deli Delight",
"address":"325 N Wiget Ln",
"city":"Walnut Creek",
"stateCode":"CA",
"postalCode":"94598",
"phone":"(925) 930-8711"
}
,
{
"name":"The Cheesecake Factory",
"address":"1181 Locust Street",
"city":"Walnut Creek",
"stateCode":"CA",
"postalCode":"94596",
"phone":"(925) 952-8450"
}
,
{
"name":"1515 Restaurant Lounge",
"address":"1515 N Main St",
"city":"Walnut Creek",
"stateCode":"CA",
"postalCode":"94596",
"phone":"(925) 939-1515"
}
,
{
"name":"Tiki Tom's",
"address":"1535 Olympic Blvd",
"city":"Walnut Creek",
"stateCode":"CA",
"postalCode":"94596",
"phone":"(925) 932-9202"
}
,
{
"name":"Dragon 2000 Restaurant",
"address":"1651 Botelho Dr",
"city":"Walnut Creek",
"stateCode":"CA",
"postalCode":"94596",
"phone":"(925) 287-1688"
}
,
{
"name":"360 Degrees Gourmet Burritos",
"address":"1558 Newell Ave",
"city":"Walnut Creek",
"stateCode":"CA",
"postalCode":"94596",
"phone":"(925) 935-0126"
}
,
{
"name":"Casper's Hot Dogs",
"address":"1280 Newell Hill Pl",
"city":"Walnut Creek",
"stateCode":"CA",
"postalCode":"94596",
"phone":"(925) 930-9154"
}
,
{
"name":"Sukhraj",
"address":"1250 Newell Ave Ste G",
"city":"Walnut Creek",
"stateCode":"CA",
"postalCode":"94596",
"phone":"(925) 935-9278"
}
,
{
"name":"Caffe Panini",
"address":"1333 N California Blvd",
"city":"Walnut Creek",
"stateCode":"CA",
"postalCode":"94596",
"phone":"(925) 933-2792"
}
,
{
"name":"C-Blue Express",
"address":"2805 Jones Rd",
"city":"Walnut Creek",
"stateCode":"CA",
"postalCode":"94597",
"phone":"(925) 938-8700"
}
,
{
"name":"Golden City Restaurant",
"address":"2932 N Main St",
"city":"Walnut Creek",
"stateCode":"CA",
"postalCode":"94597",
"phone":"(925) 935-3233"
}
,
{
"name":"Pasta Primavera Cafe & Bar",
"address":"2997 N Main St",
"city":"Walnut Creek",
"stateCode":"CA",
"postalCode":"94596",
"phone":"(925) 930-7774"
}
,
{
"name":"Creekside Grill",
"address":"1010 Stanley Dollar Dr",
"city":"Walnut Creek",
"stateCode":"CA",
"postalCode":"94595",
"phone":"(925) 949-8658"
}
,
{
"name":"Quizno's",
"address":"2236 Oak Grove Rd",
"city":"Walnut Creek",
"stateCode":"CA",
"postalCode":"94598",
"phone":"(925) 944-1231"
}
,
{
"name":"Cafe Dolce Pacific Plaza",
"address":"1340 Treat Blvd",
"city":"Walnut Creek",
"stateCode":"CA",
"postalCode":"94597",
"phone":"(925) 935-1122"
}
,
{
"name":"La Salsa",
"address":"3003 Oak Rd",
"city":"Walnut Creek",
"stateCode":"CA",
"postalCode":"94597",
"phone":"(925) 287-0922"
}
,
{
"name":"Straw Hat Pizza",
"address":"3116 Oak Rd",
"city":"Walnut Creek",
"stateCode":"CA",
"postalCode":"94597",
"phone":"(925) 939-2600"
}
,
{
"name":"Daphne's California Greek",
"address":"1813-A Ygnacio Valley Rd",
"city":"Walnut Creek",
"stateCode":"CA",
"postalCode":"94598",
"phone":"(925) 934-5098"
}
,
{
"name":"Modern China Cafe",
"address":"1525 N Main St",
"city":"Walnut Creek",
"stateCode":"CA",
"postalCode":"94596",
"phone":"(925) 988-8008"
}
,
{
"name":"Maria Maria",
"address":"1470 N Broadway",
"city":"Walnut Creek",
"stateCode":"CA",
"postalCode":"94596",
"phone":"(925) 946-1010"
}
,
{
"name":"Sun Mei Restaurant",
"address":"2932 N. Main Street",
"city":"Walnut Creek",
"stateCode":"CA",
"postalCode":"94597",
"phone":"(925) 935-3233"
}
,
{
"name":"Extreme Pizza",
"address":"1630 Cypress St",
"city":"Walnut Creek",
"stateCode":"CA",
"postalCode":"94596",
"phone":"(925) 930-6100"
}
,
{
"name":"Panera Bread",
"address":"1140 Locust St.",
"city":"Walnut Creek",
"stateCode":"CA",
"postalCode":"94596",
"phone":"(925) 280-5590"
}
,
{
"name":"McCovey's Restaurant",
"address":"1444 N California Blvd",
"city":"Walnut Creek",
"stateCode":"CA",
"postalCode":"94596",
"phone":"(925) 944-9444"
}
,
{
"name":"Redux Lounge",
"address":"1411 Locust St",
"city":"Walnut Creek",
"stateCode":"CA",
"postalCode":"94596",
"phone":"(925) 934-9490"
}
,
{
"name":"Fujian Japanese Restaurant",
"address":"1518 Bonanza St",
"city":"Walnut Creek",
"stateCode":"CA",
"postalCode":"94596",
"phone":"(925) 932-0368"
}
,
{
"name":"New York Pizza & Pasta",
"address":"1372 Locust St",
"city":"Walnut Creek",
"stateCode":"CA",
"postalCode":"94596",
"phone":"(925) 930-7377"
}
,
{
"name":"Il Fornaio",
"address":"1430 Mt. Diablo Blvd",
"city":"Walnut Creek",
"stateCode":"CA",
"postalCode":"94596",
"phone":"(925) 296-0100"
}
,
{
"name":"Taco Bell",
"address":"1250 Newell Ave",
"city":"Walnut Creek",
"stateCode":"CA",
"postalCode":"94596",
"phone":"(925) 280-1622"
}
,
{
"name":"Pasta Primivara Seafood and Bar",
"address":"2997 N Main St",
"city":"Walnut Creek",
"stateCode":"CA",
"postalCode":"94597",
"phone":"(925) 930-7774"
}
,
{
"name":"IHOP",
"address":"2910 N Main St",
"city":"Walnut Creek",
"stateCode":"CA",
"postalCode":"94597",
"phone":"(925) 938-3111"
}
,
{
"name":"Class Restaurant and Bar",
"address":"1321 Locust St",
"city":"Walnut Creek",
"stateCode":"CA",
"postalCode":"94596"
}
,
{
"name":"Rice Gardens",
"address":"55 Broadway Ln",
"city":"Walnut Creek",
"stateCode":"CA",
"postalCode":"94596",
"phone":"(925) 256-0737"
}
,
{
"name":"Jade Garden",
"address":"2979 Ygnacio Valley Rd",
"city":"Walnut Creek",
"stateCode":"CA",
"postalCode":"94598",
"phone":"(925) 934-7688"
}
,
{
"name":"Carl's Jr",
"address":"2280 Oak Grove Rd",
"city":"Walnut Creek",
"stateCode":"CA",
"postalCode":"94598",
"phone":"(925) 938-8210"
}
,
{
"name":"New Chinatown Restaurant",
"address":"2064 Treat Blvd",
"city":"Walnut Creek",
"stateCode":"CA",
"postalCode":"94598",
"phone":"(925) 933-3278"
}
,
{
"name":"Murphy's Deli",
"address":"2121 N California Blvd",
"city":"Walnut Creek",
"stateCode":"CA",
"postalCode":"94596",
"phone":"(925) 937-1081"
}
,
{
"name":"Fresh Choice Restaurant",
"address":"1275 S Main St",
"city":"Walnut Creek",
"stateCode":"CA",
"postalCode":"94596",
"phone":"(925) 938-1529"
}
,
{
"name":"Mr Lucky's Bar & Grill",
"address":"1527 Locust Street",
"city":"Walnut Creek",
"stateCode":"CA",
"postalCode":"94596",
"phone":"(925) 935-7778"
}
,
{
"name":"Spin Gourmet Pizza",
"address":"1411 Locust Street",
"city":"Walnut Creek",
"stateCode":"CA",
"postalCode":"94596",
"phone":"(925) 934-9490"
}
,
{
"name":"1990 Cafe",
"address":"1990 N California Blvd",
"city":"Walnut Creek",
"stateCode":"CA",
"postalCode":"94596",
"phone":"(925) 943-1088"
}
,
{
"name":"Chef's Touch",
"address":"1293 Parkside Dr",
"city":"Walnut Creek",
"stateCode":"CA",
"postalCode":"94596",
"phone":"(925) 946-1398"
}
,
{
"name":"The Express Grill at Pleasant Hill Bart",
"address":"1365 Treat Blvd",
"city":"Walnut Creek",
"stateCode":"CA",
"postalCode":"94597",
"phone":"(925) 300-8835"
}
,
{
"name":"Kentucky Fried Chicken",
"address":"1275 S. California Blvd",
"city":"Walnut Creek",
"stateCode":"CA",
"postalCode":"94596",
"phone":"(925) 935-3011"
}
,
{
"name":"Subway",
"address":"1556 Newell Ave",
"city":"Walnut Creek",
"stateCode":"CA",
"postalCode":"94596",
"phone":"(925) 943-6355"
}
,
{
"name":"Oishi Sushi & Grill",
"address":"1542 Newell Ave",
"city":"Walnut Creek",
"stateCode":"CA",
"postalCode":"94596",
"phone":"(925) 933-0115"
}
,
{
"name":"R&J Noodle Place",
"address":"1479 Newell Ave",
"city":"Walnut Creek",
"stateCode":"CA",
"postalCode":"94596",
"phone":"(925) 945-6243"
}
,
{
"name":"P.F. Chang's China Bistro",
"address":"1205 Broadway Plz",
"city":"Walnut Creek",
"stateCode":"CA",
"postalCode":"94596",
"phone":"(925) 979-9070"
}
,
{
"name":"Panda Express",
"address":"2280 Oak Grove Rd",
"city":"Walnut Creek",
"stateCode":"CA",
"postalCode":"94598",
"phone":"(925) 939-7833"
}
,
{
"name":"Mountain Mikes Pizza",
"address":"1817 Ygnacio Valley Rd",
"city":"Walnut Creek",
"stateCode":"CA",
"postalCode":"94598",
"phone":"(925) 937-4411"
}
,
{
"name":"McDonald's",
"address":"1380 N California Blvd",
"city":"Walnut Creek",
"stateCode":"CA",
"postalCode":"94596",
"phone":"(925) 932-7740"
}
,
{
"name":"La Fogata Mexican Bar & Grill",
"address":"1315 N Main St",
"city":"Walnut Creek",
"stateCode":"CA",
"postalCode":"94596",
"phone":"(925) 934-8121"
}
,
{
"name":"New Chinatown Restaurant",
"address":"2064 Treat Blvd",
"city":"Walnut Creek",
"stateCode":"CA",
"postalCode":"94598",
"phone":"(925) 933-3278"
}
,
{
"name":"Una Mas",
"address":"2054 Treat Blvd",
"city":"Walnut Creek",
"stateCode":"CA",
"postalCode":"94598",
"phone":"(925) 933-9500"
}
,
{
"name":"Taco Bell",
"address":"2400 N Main St",
"city":"Walnut Creek",
"stateCode":"CA",
"postalCode":"94596",
"phone":"(925) 932-1353"
}
,
{
"name":"Subway Sandwiches & Salad",
"address":"1572 Palos Verdes Mall",
"city":"Walnut Creek",
"stateCode":"CA",
"postalCode":"94597",
"phone":"(925) 932-1057"
}
,
{
"name":"Baja Fresh Mexican Grill",
"address":"1251 S California Blvd",
"city":"Walnut Creek",
"stateCode":"CA",
"postalCode":"94596",
"phone":"(925) 947-0588"
}
,
{
"name":"Burger King",
"address":"1799 N Broadway",
"city":"Walnut Creek",
"stateCode":"CA",
"postalCode":"94596",
"phone":"(925) 937-5129"
}
,
{
"name":"Main Street Grill",
"address":"2355 N Main St",
"city":"Walnut Creek",
"stateCode":"CA",
"postalCode":"94596",
"phone":"(925) 927-1149"
}
,
{
"name":"Quizno's",
"address":"2914 N Main St",
"city":"Walnut Creek",
"stateCode":"CA",
"postalCode":"94596",
"phone":"(925) 930-0090"
}
,
{
"name":"Burger King Restaurants",
"address":"2855 N Main St",
"city":"Walnut Creek",
"stateCode":"CA",
"postalCode":"94597",
"phone":"(925) 930-6826"
}
,
{
"name":"Kentucky Fried Chicken",
"address":"1275 S California Blvd",
"city":"Walnut Creek",
"stateCode":"CA",
"postalCode":"94596",
"phone":"(925) 935-3011"
}
,
{
"name":"Taqueria Mexican Grill",
"address":"1359 Locust St",
"city":"Walnut Creek",
"stateCode":"CA",
"postalCode":"94596",
"phone":"(925) 932-8987"
}
,
{
"name":"Quizno's",
"address":"1280 Newell Ave",
"city":"Walnut Creek",
"stateCode":"CA",
"postalCode":"94596",
"phone":"(925) 930-0996"
}
,
{
"name":"Spin Ultra Lounge",
"address":"1411 Locust St",
"city":"Walnut Creek",
"stateCode":"CA",
"postalCode":"94596"
}
,
{
"name":"Applebee's Neighborhood Grill & Bar",
"address":"2819 Ygnacio Valley Rd",
"city":"Walnut Creek",
"stateCode":"CA",
"postalCode":"94598",
"phone":"(925) 930-0130"
}
,
{
"name":"Subway Sandwiches & Salads",
"address":"3116 Oak Rd Ste F",
"city":"Walnut Creek",
"stateCode":"CA",
"postalCode":"94597",
"phone":"(925) 930-2954"
}
]
